CZ-2D R/B               
1 28738U 05024B   25332.54338842  .00024824  00000+0  41017-3 0  9996
2 28738  97.3649 339.6294 0007480  49.2270 310.9630 15.52201010124058
ALOS (DAICHI)           
1 28931U 06002A   25332.60009579  .00001688  00000+0  29362-3 0  9999
2 28931  98.1074 284.1895 0000694  89.6161 270.5124 14.69418748 58636
H-2A R/B                
1 28932U 06002B   25332.64497629  .00010890  00000+0  57978-3 0  9990
2 28932  98.2308 106.2479 0054426 224.2730 135.4140 15.14137372 79138
RESURS-DK 1             
1 29228U 06021A   25332.60765775  .00003252  00000+0  19489-3 0  9995
2 29228  69.9319 138.3548 0007647 268.7577  91.2713 15.12034287 72241
CZ-4B R/B               
1 29507U 06046C   25332.57578489  .00005167  00000+0  27172-3 0  9997
2 29507  97.5760  12.7531 0032559 257.2106 102.5487 15.15656243 44727
CZ-2C R/B               
1 31114U 07010B   25332.55768731  .00000175  00000+0  99491-4 0  9993
2 31114  98.3970  85.9227 0058223 227.4671 132.1582 14.20200464965364
COSMO-SKYMED 1          
1 31598U 07023A   25332.67220993  .00004613  00000+0  42064-3 0  9993
2 31598  97.8849 157.9803 0001561  88.7353 271.4047 14.95606769999794
COSMOS 2428             
1 31792U 07029A   25332.57877802 -.00000087  00000+0 -21155-4 0  9993
2 31792  70.9375  55.6111 0002885  46.0657 314.0702 14.12886456949818
SL-16 R/B               
1 31793U 07029B   25332.61234545 -.00000112  00000+0 -33350-4 0  9999
2 31793  70.9776  24.8548 0002433 265.9670 205.5661 14.14816951951076
KORONAS-FOTON           
1 33504U 09003A   25332.59813535  .00013059  00000+0  31775-3 0  9994
2 33504  82.4326  20.7530 0012298 154.5957 205.5897 15.40733263930166
CZ-2C R/B               
1 37731U 11030B   25332.48164752  .00001847  00000+0  24091-3 0  9996
2 37731  97.8392 286.9066 0052036 321.2386 152.7856 14.80824533775112
H-2A R/B                
1 38341U 12025E   25332.44452930  .00003432  00000+0  31990-3 0  9991
2 38341  98.4581 286.5761 0043757 284.7610  74.8761 14.94303116733092
