CCSDS_OMM_VERS = 2.0
CREATION_DATE  = 
ORIGINATOR     = 

OBJECT_NAME    = CZ-2D R/B
OBJECT_ID      = 2005-024B
CENTER_NAME    = EARTH
REF_FRAME      = TEME
TIME_SYSTEM    = UTC
MEAN_ELEMENT_THEORY = SGP/SGP4

EPOCH          = 2025-11-28T13:02:28.759488
MEAN_MOTION    = 15.52201010
ECCENTRICITY   = .00074808
INCLINATION    = 97.3649
RA_OF_ASC_NODE = 339.6294
ARG_OF_PERICENTER = 49.2270
MEAN_ANOMALY   = 310.9630

EPHEMERIS_TYPE = 0
CLASSIFICATION_TYPE = U
NORAD_CAT_ID   = 28738
ELEMENT_SET_NO = 999
REV_AT_EPOCH   = 12405
BSTAR          = .41016946E-3
MEAN_MOTION_DOT = .24824E-3
MEAN_MOTION_DDOT = 0

CCSDS_OMM_VERS = 2.0
CREATION_DATE  = 
ORIGINATOR     = 

OBJECT_NAME    = ALOS (DAICHI)
OBJECT_ID      = 2006-002A
CENTER_NAME    = EARTH
REF_FRAME      = TEME
TIME_SYSTEM    = UTC
MEAN_ELEMENT_THEORY = SGP/SGP4

EPOCH          = 2025-11-28T14:24:08.276256
MEAN_MOTION    = 14.69418748
ECCENTRICITY   = .00006942
INCLINATION    = 98.1074
RA_OF_ASC_NODE = 284.1895
ARG_OF_PERICENTER = 89.6161
MEAN_ANOMALY   = 270.5124

EPHEMERIS_TYPE = 0
CLASSIFICATION_TYPE = U
NORAD_CAT_ID   = 28931
ELEMENT_SET_NO = 999
REV_AT_EPOCH   = 5863
BSTAR          = .29362477E-3
MEAN_MOTION_DOT = .1688E-4
MEAN_MOTION_DDOT = 0

CCSDS_OMM_VERS = 2.0
CREATION_DATE  = 
ORIGINATOR     = 

OBJECT_NAME    = H-2A R/B
OBJECT_ID      = 2006-002B
CENTER_NAME    = EARTH
REF_FRAME      = TEME
TIME_SYSTEM    = UTC
MEAN_ELEMENT_THEORY = SGP/SGP4

EPOCH          = 2025-11-28T15:28:45.951456
MEAN_MOTION    = 15.14137372
ECCENTRICITY   = .00544265
INCLINATION    = 98.2308
RA_OF_ASC_NODE = 106.2479
ARG_OF_PERICENTER = 224.2730
MEAN_ANOMALY   = 135.4140

EPHEMERIS_TYPE = 0
CLASSIFICATION_TYPE = U
NORAD_CAT_ID   = 28932
ELEMENT_SET_NO = 999
REV_AT_EPOCH   = 7913
BSTAR          = .57978053E-3
MEAN_MOTION_DOT = .1089E-3
MEAN_MOTION_DDOT = 0

CCSDS_OMM_VERS = 2.0
CREATION_DATE  = 
ORIGINATOR     = 

OBJECT_NAME    = RESURS-DK 1
OBJECT_ID      = 2006-021A
CENTER_NAME    = EARTH
REF_FRAME      = TEME
TIME_SYSTEM    = UTC
MEAN_ELEMENT_THEORY = SGP/SGP4

EPOCH          = 2025-11-28T14:35:01.629600
MEAN_MOTION    = 15.12034287
ECCENTRICITY   = .00076475
INCLINATION    = 69.9319
RA_OF_ASC_NODE = 138.3548
ARG_OF_PERICENTER = 268.7577
MEAN_ANOMALY   = 91.2713

EPHEMERIS_TYPE = 0
CLASSIFICATION_TYPE = U
NORAD_CAT_ID   = 29228
ELEMENT_SET_NO = 999
REV_AT_EPOCH   = 7224
BSTAR          = .19489242E-3
MEAN_MOTION_DOT = .3252E-4
MEAN_MOTION_DDOT = 0

CCSDS_OMM_VERS = 2.0
CREATION_DATE  = 
ORIGINATOR     = 

OBJECT_NAME    = CZ-4B R/B
OBJECT_ID      = 2006-046C
CENTER_NAME    = EARTH
REF_FRAME      = TEME
TIME_SYSTEM    = UTC
MEAN_ELEMENT_THEORY = SGP/SGP4

EPOCH          = 2025-11-28T13:49:07.814496
MEAN_MOTION    = 15.15656243
ECCENTRICITY   = .00325592
INCLINATION    = 97.5760
RA_OF_ASC_NODE = 12.7531
ARG_OF_PERICENTER = 257.2106
MEAN_ANOMALY   = 102.5487

EPHEMERIS_TYPE = 0
CLASSIFICATION_TYPE = U
NORAD_CAT_ID   = 29507
ELEMENT_SET_NO = 999
REV_AT_EPOCH   = 4472
BSTAR          = .27171774E-3
MEAN_MOTION_DOT = .5167E-4
MEAN_MOTION_DDOT = 0

CCSDS_OMM_VERS = 2.0
CREATION_DATE  = 
ORIGINATOR     = 

OBJECT_NAME    = CZ-2C R/B
OBJECT_ID      = 2007-010B
CENTER_NAME    = EARTH
REF_FRAME      = TEME
TIME_SYSTEM    = UTC
MEAN_ELEMENT_THEORY = SGP/SGP4

EPOCH          = 2025-11-28T13:23:04.183584
MEAN_MOTION    = 14.20200464
ECCENTRICITY   = .00582236
INCLINATION    = 98.3970
RA_OF_ASC_NODE = 85.9227
ARG_OF_PERICENTER = 227.4671
MEAN_ANOMALY   = 132.1582

EPHEMERIS_TYPE = 0
CLASSIFICATION_TYPE = U
NORAD_CAT_ID   = 31114
ELEMENT_SET_NO = 999
REV_AT_EPOCH   = 96536
BSTAR          = .99491401E-4
MEAN_MOTION_DOT = .175E-5
MEAN_MOTION_DDOT = 0

CCSDS_OMM_VERS = 2.0
CREATION_DATE  = 
ORIGINATOR     = 

OBJECT_NAME    = COSMO-SKYMED 1
OBJECT_ID      = 2007-023A
CENTER_NAME    = EARTH
REF_FRAME      = TEME
TIME_SYSTEM    = UTC
MEAN_ELEMENT_THEORY = SGP/SGP4

EPOCH          = 2025-11-28T16:07:58.937952
MEAN_MOTION    = 14.95606769
ECCENTRICITY   = .0001561
INCLINATION    = 97.8849
RA_OF_ASC_NODE = 157.9803
ARG_OF_PERICENTER = 88.7353
MEAN_ANOMALY   = 271.4047

EPHEMERIS_TYPE = 0
CLASSIFICATION_TYPE = U
NORAD_CAT_ID   = 31598
ELEMENT_SET_NO = 999
REV_AT_EPOCH   = 99979
BSTAR          = .42064223E-3
MEAN_MOTION_DOT = .4613E-4
MEAN_MOTION_DDOT = 0

CCSDS_OMM_VERS = 2.0
CREATION_DATE  = 
ORIGINATOR     = 

OBJECT_NAME    = COSMOS 2428
OBJECT_ID      = 2007-029A
CENTER_NAME    = EARTH
REF_FRAME      = TEME
TIME_SYSTEM    = UTC
MEAN_ELEMENT_THEORY = SGP/SGP4

EPOCH          = 2025-11-28T13:53:26.420928
MEAN_MOTION    = 14.12886456
ECCENTRICITY   = .00028859
INCLINATION    = 70.9375
RA_OF_ASC_NODE = 55.6111
ARG_OF_PERICENTER = 46.0657
MEAN_ANOMALY   = 314.0702

EPHEMERIS_TYPE = 0
CLASSIFICATION_TYPE = U
NORAD_CAT_ID   = 31792
ELEMENT_SET_NO = 999
REV_AT_EPOCH   = 94981
BSTAR          = -.21155432E-4
MEAN_MOTION_DOT = -.87E-6
MEAN_MOTION_DDOT = 0

CCSDS_OMM_VERS = 2.0
CREATION_DATE  = 
ORIGINATOR     = 

OBJECT_NAME    = SL-16 R/B
OBJECT_ID      = 2007-029B
CENTER_NAME    = EARTH
REF_FRAME      = TEME
TIME_SYSTEM    = UTC
MEAN_ELEMENT_THEORY = SGP/SGP4

EPOCH          = 2025-11-28T14:41:46.646880
MEAN_MOTION    = 14.14816951
ECCENTRICITY   = .00024335
INCLINATION    = 70.9776
RA_OF_ASC_NODE = 24.8548
ARG_OF_PERICENTER = 265.9670
MEAN_ANOMALY   = 205.5661

EPHEMERIS_TYPE = 0
CLASSIFICATION_TYPE = U
NORAD_CAT_ID   = 31793
ELEMENT_SET_NO = 999
REV_AT_EPOCH   = 95107
BSTAR          = -.33350379E-4
MEAN_MOTION_DOT = -.112E-5
MEAN_MOTION_DDOT = 0

CCSDS_OMM_VERS = 2.0
CREATION_DATE  = 
ORIGINATOR     = 

OBJECT_NAME    = KORONAS-FOTON
OBJECT_ID      = 2009-003A
CENTER_NAME    = EARTH
REF_FRAME      = TEME
TIME_SYSTEM    = UTC
MEAN_ELEMENT_THEORY = SGP/SGP4

EPOCH          = 2025-11-28T14:21:18.894240
MEAN_MOTION    = 15.40733263
ECCENTRICITY   = .00122983
INCLINATION    = 82.4326
RA_OF_ASC_NODE = 20.7530
ARG_OF_PERICENTER = 154.5957
MEAN_ANOMALY   = 205.5897

EPHEMERIS_TYPE = 0
CLASSIFICATION_TYPE = U
NORAD_CAT_ID   = 33504
ELEMENT_SET_NO = 999
REV_AT_EPOCH   = 93016
BSTAR          = .31774639E-3
MEAN_MOTION_DOT = .13059E-3
MEAN_MOTION_DDOT = 0

CCSDS_OMM_VERS = 2.0
CREATION_DATE  = 
ORIGINATOR     = 

OBJECT_NAME    = CZ-2C R/B
OBJECT_ID      = 2011-030B
CENTER_NAME    = EARTH
REF_FRAME      = TEME
TIME_SYSTEM    = UTC
MEAN_ELEMENT_THEORY = SGP/SGP4

EPOCH          = 2025-11-28T11:33:34.345728
MEAN_MOTION    = 14.80824533
ECCENTRICITY   = .00520366
INCLINATION    = 97.8392
RA_OF_ASC_NODE = 286.9066
ARG_OF_PERICENTER = 321.2386
MEAN_ANOMALY   = 152.7856

EPHEMERIS_TYPE = 0
CLASSIFICATION_TYPE = U
NORAD_CAT_ID   = 37731
ELEMENT_SET_NO = 999
REV_AT_EPOCH   = 77511
BSTAR          = .24091405E-3
MEAN_MOTION_DOT = .1847E-4
MEAN_MOTION_DDOT = 0

CCSDS_OMM_VERS = 2.0
CREATION_DATE  = 
ORIGINATOR     = 

OBJECT_NAME    = H-2A R/B
OBJECT_ID      = 2012-025E
CENTER_NAME    = EARTH
REF_FRAME      = TEME
TIME_SYSTEM    = UTC
MEAN_ELEMENT_THEORY = SGP/SGP4

EPOCH          = 2025-11-28T10:40:07.331520
MEAN_MOTION    = 14.94303116
ECCENTRICITY   = .00437573
INCLINATION    = 98.4581
RA_OF_ASC_NODE = 286.5761
ARG_OF_PERICENTER = 284.7610
MEAN_ANOMALY   = 74.8761

EPHEMERIS_TYPE = 0
CLASSIFICATION_TYPE = U
NORAD_CAT_ID   = 38341
ELEMENT_SET_NO = 999
REV_AT_EPOCH   = 73309
BSTAR          = .31989502E-3
MEAN_MOTION_DOT = .3432E-4
MEAN_MOTION_DDOT = 0

